[{"OBJECT_NAME":"STARLINK-2407","OBJECT_ID":"2021-018AM","EPOCH":"2026-03-09T19:17:37.639104","MEAN_MOTION":15.30202412,"ECCENTRICITY":0.00012522,"INCLINATION":53.1597,"RA_OF_ASC_NODE":254.7615,"ARG_OF_PERICENTER":109.229,"MEAN_ANOMALY":250.8847,"EPHEMERIS_TYPE":0,"CLASSIFICATION_TYPE":"U","NORAD_CAT_ID":47822,"ELEMENT_SET_NO":999,"REV_AT_EPOCH":27657,"BSTAR":9.0313877e-5,"MEAN_MOTION_DOT":2.317e-5,"MEAN_MOTION_DDOT":0},{"OBJECT_NAME":"FENGYUN 1C DEB","OBJECT_ID":"1999-025DFY","EPOCH":"2026-03-03T06:55:21.899424","MEAN_MOTION":15.25006274,"ECCENTRICITY":0.01038057,"INCLINATION":98.9901,"RA_OF_ASC_NODE":88.6648,"ARG_OF_PERICENTER":65.5781,"MEAN_ANOMALY":295.624,"EPHEMERIS_TYPE":0,"CLASSIFICATION_TYPE":"U","NORAD_CAT_ID":33687,"ELEMENT_SET_NO":999,"REV_AT_EPOCH":72733,"BSTAR":0.001670914,"MEAN_MOTION_DOT":0.00048845,"MEAN_MOTION_DDOT":0}]
